{
    "type": "FeatureCollection",
    "features": [
        {
            "type": "Feature",
            "properties": {},
            "geometry": {
                "type": "Polygon",
                "coordinates": [
                    [
                        [
                            169.52201,
                            5.870138
                        ],
                        [
                            169.52201,
                            5.860499
                        ],
                        [
                            169.526571,
                            5.860499
                        ],
                        [
                            169.526571,
                            5.870138
                        ],
                        [
                            169.52201,
                            5.870138
                        ]
                    ]
                ]
            },
            "bbox": [
                169.52201,
                5.860499,
                169.526571,
                5.870138
            ]
        }
    ]
}